{"type": "FeatureCollection", "features": [ {"type": "Feature", "properties": {"norad_id": 43565, "name": "GSAT0222 (GALILEO 26)", "group": "gnss", "lat": -48.950938627904655, "lon": -61.19792190478101, "alt_km": 23211.875512215232, "timestamp": "2025-12-23T18:59:32.214367+00:00", "meta": {"OBJECT_NAME": "GSAT0222 (GALILEO 26)", "OBJECT_ID": "2018-060B", "EPOCH": "2025-12-22T03:15:04.306464", "MEAN_MOTION": 1.70475514, "ECCENTRICITY": 0.000605, "INCLINATION": 57.229, "RA_OF_ASC_NODE": 346.567, "ARG_OF_PERICENTER": 266.9186, "MEAN_ANOMALY": 93.0201, "EPHEMERIS_TYPE": 0, "CLASSIFICATION_TYPE": "U", "NORAD_CAT_ID": 43565, "ELEMENT_SET_NO": 999, "REV_AT_EPOCH": 4619, "BSTAR": 0, "MEAN_MOTION_DOT": -6.5e-07, "MEAN_MOTION_DDOT": 0}, "tle": {"line1": "1 43565U 18060B   25356.13546651 -.00000065  00000+0  00000+0 0  9990", "line2": "2 43565  57.2290 346.5670 0006050 266.9186  93.0201  1.70475514 46199"}}, "geometry": {"type": "Point", "coordinates": [-61.19792190478101, -48.950938627904655]}}, {"type": "Feature", "properties": {"norad_id": 43566, "name": "GSAT0219 (GALILEO 23)", "group": "gnss", "lat": 16.324212414531416, "lon": 155.637251884278, "alt_km": 23231.507831081934, "timestamp": "2025-12-23T18:59:32.214377+00:00", "meta": {"OBJECT_NAME": "GSAT0219 (GALILEO 23)", "OBJECT_ID": "2018-060C", "EPOCH": "2025-12-22T08:33:30.157056", "MEAN_MOTION": 1.70475755, "ECCENTRICITY": 0.00058833, "INCLINATION": 57.2283, "RA_OF_ASC_NODE": 346.5626, "ARG_OF_PERICENTER": 291.1394, "MEAN_ANOMALY": 68.8055, "EPHEMERIS_TYPE": 0, "CLASSIFICATION_TYPE": "U", "NORAD_CAT_ID": 43566, "ELEMENT_SET_NO": 999, "REV_AT_EPOCH": 4617, "BSTAR": 0, "MEAN_MOTION_DOT": -6.5e-07, "MEAN_MOTION_DDOT": 0}, "tle": {"line1": "1 43566U 18060C   25356.35659904 -.00000065  00000+0  00000+0 0  9991", "line2": "2 43566  57.2283 346.5626 0005883 291.1394  68.8055  1.70475755 46179"}}, "geometry": {"type": "Point", "coordinates": [155.637251884278, 16.324212414531416]}}, {"type": "Feature", "properties": {"norad_id": 43567, "name": "GSAT0220 (GALILEO 24)", "group": "gnss", "lat": 20.775368267016095, "lon": 0.6574952053094092, "alt_km": 23220.454792614943, "timestamp": "2025-12-23T18:59:32.214387+00:00", "meta": {"OBJECT_NAME": "GSAT0220 (GALILEO 24)", "OBJECT_ID": "2018-060D", "EPOCH": "2025-12-22T13:51:37.996704", "MEAN_MOTION": 1.70475778, "ECCENTRICITY": 0.00061452, "INCLINATION": 57.2282, "RA_OF_ASC_NODE": 346.557, "ARG_OF_PERICENTER": 292.1029, "MEAN_ANOMALY": 67.8394, "EPHEMERIS_TYPE": 0, "CLASSIFICATION_TYPE": "U", "NORAD_CAT_ID": 43567, "ELEMENT_SET_NO": 999, "REV_AT_EPOCH": 4616, "BSTAR": 0, "MEAN_MOTION_DOT": -6.4e-07, "MEAN_MOTION_DDOT": 0}, "tle": {"line1": "1 43567U 18060D   25356.57752311 -.00000064  00000+0  00000+0 0  9991", "line2": "2 43567  57.2282 346.5570 0006145 292.1029  67.8394  1.70475778 46164"}}, "geometry": {"type": "Point", "coordinates": [0.6574952053094092, 20.775368267016095]}}, {"type": "Feature", "properties": {"norad_id": 43581, "name": "BEIDOU-3 M5 (C23)", "group": "gnss", "lat": -0.19578680484269087, "lon": 8.412705708559747, "alt_km": 21533.88437275062, "timestamp": "2025-12-23T18:59:32.214396+00:00", "meta": {"OBJECT_NAME": "BEIDOU-3 M5 (C23)", "OBJECT_ID": "2018-062A", "EPOCH": "2025-12-22T23:39:18.716256", "MEAN_MOTION": 1.86228796, "ECCENTRICITY": 0.00019159, "INCLINATION": 54.09, "RA_OF_ASC_NODE": 188.2947, "ARG_OF_PERICENTER": 2.7152, "MEAN_ANOMALY": 357.3266, "EPHEMERIS_TYPE": 0, "CLASSIFICATION_TYPE": "U", "NORAD_CAT_ID": 43581, "ELEMENT_SET_NO": 999, "REV_AT_EPOCH": 5035, "BSTAR": 0, "MEAN_MOTION_DOT": 9.6e-07, "MEAN_MOTION_DDOT": 0}, "tle": {"line1": "1 43581U 18062A   25356.98563329  .00000096  00000+0  00000+0 0  9997", "line2": "2 43581  54.0900 188.2947 0001915   2.7152 357.3266  1.86228796 50357"}}, "geometry": {"type": "Point", "coordinates": [8.412705708559747, -0.19578680484269087]}}, {"type": "Feature", "properties": {"norad_id": 43582, "name": "BEIDOU-3 M6 (C24)", "group": "gnss", "lat": -54.00560186740551, "lon": 101.77161477235072, "alt_km": 21549.756964321936, "timestamp": "2025-12-23T18:59:32.214406+00:00", "meta": {"OBJECT_NAME": "BEIDOU-3 M6 (C24)", "OBJECT_ID": "2018-062B", "EPOCH": "2025-12-21T18:35:38.749056", "MEAN_MOTION": 1.86229862, "ECCENTRICITY": 0.00078412, "INCLINATION": 54.0893, "RA_OF_ASC_NODE": 188.325, "ARG_OF_PERICENTER": 48.2344, "MEAN_ANOMALY": 311.88, "EPHEMERIS_TYPE": 0, "CLASSIFICATION_TYPE": "U", "NORAD_CAT_ID": 43582, "ELEMENT_SET_NO": 999, "REV_AT_EPOCH": 5033, "BSTAR": 0, "MEAN_MOTION_DOT": 9.4e-07, "MEAN_MOTION_DDOT": 0}, "tle": {"line1": "1 43582U 18062B   25355.77475404  .00000094  00000+0  00000+0 0  9998", "line2": "2 43582  54.0893 188.3250 0007841  48.2344 311.8800  1.86229862 50331"}}, "geometry": {"type": "Point", "coordinates": [101.77161477235072, -54.00560186740551]}}, {"type": "Feature", "properties": {"norad_id": 43602, "name": "BEIDOU-3 M12 (C26)", "group": "gnss", "lat": -35.93708719966389, "lon": 155.40774057688856, "alt_km": 21531.824160795844, "timestamp": "2025-12-23T18:59:32.214416+00:00", "meta": {"OBJECT_NAME": "BEIDOU-3 M12 (C26)", "OBJECT_ID": "2018-067A", "EPOCH": "2025-12-22T18:52:41.106432", "MEAN_MOTION": 1.86227882, "ECCENTRICITY": 0.0009247, "INCLINATION": 54.1835, "RA_OF_ASC_NODE": 187.0221, "ARG_OF_PERICENTER": 41.599, "MEAN_ANOMALY": 318.5103, "EPHEMERIS_TYPE": 0, "CLASSIFICATION_TYPE": "U", "NORAD_CAT_ID": 43602, "ELEMENT_SET_NO": 999, "REV_AT_EPOCH": 4983, "BSTAR": 0, "MEAN_MOTION_DOT": 9.5e-07, "MEAN_MOTION_DDOT": 0}, "tle": {"line1": "1 43602U 18067A   25356.78658688  .00000095  00000+0  00000+0 0  9996", "line2": "2 43602  54.1835 187.0221 0009247  41.5990 318.5103  1.86227882 49833"}}, "geometry": {"type": "Point", "coordinates": [155.40774057688856, -35.93708719966389]}}, {"type": "Feature", "properties": {"norad_id": 43603, "name": "BEIDOU-3 M11 (C25)", "group": "gnss", "lat": -33.92234488195715, "lon": 36.031439447525656, "alt_km": 21548.2800380903, "timestamp": "2025-12-23T18:59:32.214427+00:00", "meta": {"OBJECT_NAME": "BEIDOU-3 M11 (C25)", "OBJECT_ID": "2018-067B", "EPOCH": "2025-12-21T20:19:59.001024", "MEAN_MOTION": 1.86227373, "ECCENTRICITY": 0.00056493, "INCLINATION": 54.1806, "RA_OF_ASC_NODE": 187.018, "ARG_OF_PERICENTER": 37.4949, "MEAN_ANOMALY": 322.5886, "EPHEMERIS_TYPE": 0, "CLASSIFICATION_TYPE": "U", "NORAD_CAT_ID": 43603, "ELEMENT_SET_NO": 999, "REV_AT_EPOCH": 4984, "BSTAR": 0, "MEAN_MOTION_DOT": 9.4e-07, "MEAN_MOTION_DDOT": 0}, "tle": {"line1": "1 43603U 18067B   25355.84721066  .00000094  00000+0  00000+0 0  9993", "line2": "2 43603  54.1806 187.0180 0005649  37.4949 322.5886  1.86227373 49845"}}, "geometry": {"type": "Point", "coordinates": [36.031439447525656, -33.92234488195715]}}, {"type": "Feature", "properties": {"norad_id": 43622, "name": "BEIDOU-3 M13 (C32)", "group": "gnss", "lat": -52.68453051263455, "lon": -51.20360201331627, "alt_km": 21521.14796524014, "timestamp": "2025-12-23T18:59:32.214440+00:00", "meta": {"OBJECT_NAME": "BEIDOU-3 M13 (C32)", "OBJECT_ID": "2018-072A", "EPOCH": "2025-12-22T08:10:31.412640", "MEAN_MOTION": 1.86231166, "ECCENTRICITY": 0.00064111, "INCLINATION": 56.4667, "RA_OF_ASC_NODE": 68.5024, "ARG_OF_PERICENTER": 297.4685, "MEAN_ANOMALY": 62.5173, "EPHEMERIS_TYPE": 0, "CLASSIFICATION_TYPE": "U", "NORAD_CAT_ID": 43622, "ELEMENT_SET_NO": 999, "REV_AT_EPOCH": 4936, "BSTAR": 0, "MEAN_MOTION_DOT": -2.9e-07, "MEAN_MOTION_DDOT": 0}, "tle": {"line1": "1 43622U 18072A   25356.34064135 -.00000029  00000+0  00000+0 0  9992", "line2": "2 43622  56.4667  68.5024 0006411 297.4685  62.5173  1.86231166 49361"}}, "geometry": {"type": "Point", "coordinates": [-51.20360201331627, -52.68453051263455]}}, {"type": "Feature", "properties": {"norad_id": 43623, "name": "BEIDOU-3 M14 (C33)", "group": "gnss", "lat": -14.269698876656829, "lon": 58.77158439847002, "alt_km": 21520.50667020169, "timestamp": "2025-12-23T18:59:32.214450+00:00", "meta": {"OBJECT_NAME": "BEIDOU-3 M14 (C33)", "OBJECT_ID": "2018-072B", "EPOCH": "2025-12-23T06:43:13.861056", "MEAN_MOTION": 1.86231163, "ECCENTRICITY": 0.00035931, "INCLINATION": 56.4696, "RA_OF_ASC_NODE": 68.4654, "ARG_OF_PERICENTER": 327.0772, "MEAN_ANOMALY": 32.9541, "EPHEMERIS_TYPE": 0, "CLASSIFICATION_TYPE": "U", "NORAD_CAT_ID": 43623, "ELEMENT_SET_NO": 999, "REV_AT_EPOCH": 4937, "BSTAR": 0, "MEAN_MOTION_DOT": -2.6e-07, "MEAN_MOTION_DDOT": 0}, "tle": {"line1": "1 43623U 18072B   25357.28002154 -.00000026  00000+0  00000+0 0  9997", "line2": "2 43623  56.4696  68.4654 0003593 327.0772  32.9541  1.86231163 49375"}}, "geometry": {"type": "Point", "coordinates": [58.77158439847002, -14.269698876656829]}}, {"type": "Feature", "properties": {"norad_id": 43647, "name": "BEIDOU-3 M16 (C35)", "group": "gnss", "lat": -42.976792701978056, "lon": 168.21479202408597, "alt_km": 21549.450348026774, "timestamp": "2025-12-23T18:59:32.214460+00:00", "meta": {"OBJECT_NAME": "BEIDOU-3 M16 (C35)", "OBJECT_ID": "2018-078A", "EPOCH": "2025-12-22T21:37:04.499328", "MEAN_MOTION": 1.86232328, "ECCENTRICITY": 0.00074196, "INCLINATION": 54.2525, "RA_OF_ASC_NODE": 306.1662, "ARG_OF_PERICENTER": 20.3198, "MEAN_ANOMALY": 339.7131, "EPHEMERIS_TYPE": 0, "CLASSIFICATION_TYPE": "U", "NORAD_CAT_ID": 43647, "ELEMENT_SET_NO": 999, "REV_AT_EPOCH": 4887, "BSTAR": 0, "MEAN_MOTION_DOT": -5.5e-07, "MEAN_MOTION_DDOT": 0}, "tle": {"line1": "1 43647U 18078A   25356.90074652 -.00000055  00000+0  00000+0 0  9991", "line2": "2 43647  54.2525 306.1662 0007419  20.3198 339.7131  1.86232328 48876"}}, "geometry": {"type": "Point", "coordinates": [168.21479202408597, -42.976792701978056]}}]}